OBJECT_NAME,OBJECT_ID,EPOCH,MEAN_MOTION,ECCENTRICITY,INCLINATION,RA_OF_ASC_NODE,ARG_OF_PERICENTER,MEAN_ANOMALY,EPHEMERIS_TYPE,CLASSIFICATION_TYPE,NORAD_CAT_ID,ELEMENT_SET_NO,REV_AT_EPOCH,BSTAR,MEAN_MOTION_DOT,MEAN_MOTION_DDOT
IRIDIUM 163,2018-061G,2026-06-03T06:12:46.400832,14.34218315,.00023457,86.3967,62.5453,84.9878,275.1585,0,U,43575,999,41138,.22139673E-4,.82E-6,0
IRIDIUM 156,2018-061H,2026-06-03T15:39:02.552832,14.34216992,.0002202,86.3964,62.3884,78.3978,281.7465,0,U,43576,999,41143,.19671E-4,.75E-6,0
IRIDIUM 164,2018-061J,2026-06-03T06:49:18.194304,14.34216110,.00020825,86.3968,62.5824,88.5188,271.6246,0,U,43577,999,41142,.41105292E-4,.135E-5,0
IRIDIUM 159,2018-061K,2026-06-03T06:03:38.484864,14.34217381,.00021896,86.3964,62.5325,85.5676,274.5770,0,U,43578,999,41138,-.8180285E-5,-.3E-7,0
IRIDIUM 180,2019-002A,2026-06-04T00:28:02.984736,14.34217593,.0002223,86.3973,359.1034,88.9969,271.1481,0,U,43922,999,38710,-.33003E-6,.19E-6,0
IRIDIUM 176,2019-002B,2026-06-04T00:59:21.229152,14.72250390,.0002064,86.6092,359.0396,79.4396,280.7053,0,U,43923,999,39731,.14331E-3,.928E-5,0
IRIDIUM 168,2019-002C,2026-06-04T00:18:54.960768,14.34217307,.0002047,86.3974,359.1828,88.9416,271.2014,0,U,43924,999,38708,-.12149E-4,-.14E-6,0
IRIDIUM 173,2019-002D,2026-06-04T01:41:06.802368,14.34219202,.0002255,86.3973,359.0486,87.4462,272.6992,0,U,43925,999,38707,.86519E-4,.262E-5,0
IRIDIUM 169,2019-002E,2026-06-04T00:52:46.247232,14.38608848,.0002351,86.4236,30.6909,69.5874,290.5576,0,U,43926,999,38833,.18754E-3,.594E-5,0
IRIDIUM 172,2019-002F,2026-06-04T01:31:58.979712,14.34217486,.0002271,86.3974,359.0592,89.7635,270.3821,0,U,43927,999,38708,.15379E-5,.24E-6,0
IRIDIUM 175,2019-002G,2026-06-03T08:14:39.785856,14.43604578,.00009891,86.4502,296.3094,262.2416,97.8672,0,U,43928,999,39698,.10234176E-3,.367E-5,0
IRIDIUM 171,2019-002H,2026-06-04T01:04:34.923360,14.34217579,.0002026,86.3984,359.3717,85.6168,274.5259,0,U,43929,999,38707,-.88679E-6,.17E-6,0
IRIDIUM 170,2019-002J,2026-06-04T01:08:15.588096,14.72248546,.0002383,86.6102,359.0408,89.4496,270.6994,0,U,43930,999,39732,.33549E-4,.236E-5,0
IRIDIUM 167,2019-002K,2026-06-04T00:55:26.882112,14.34217615,.0001906,86.3974,359.0918,83.7540,276.3873,0,U,43931,999,38707,-.70865E-6,.18E-6,0
IRIDIUM 181,2023-068S,2026-06-03T20:44:56.406336,14.43306685,.0002275,86.4505,62.3588,88.3834,271.7627,0,U,56726,999,16051,.61933E-4,.229E-5,0
IRIDIUM 177,2023-068T,2026-06-04T00:07:13.499040,14.80229750,.0002447,86.1957,335.0540,86.4663,273.6837,0,U,56727,999,16441,.56244E-4,.454E-5,0
IRIDIUM 174,2023-068U,2026-06-04T00:50:27.589920,14.72251454,.0002486,86.6101,359.1909,89.4055,270.7447,0,U,56728,999,16408,-.54342E-5,-.1E-6,0
IRIDIUM 178,2023-068V,2026-06-04T01:28:55.263936,14.80243860,.0002496,86.6548,30.8455,88.8573,271.2935,0,U,56729,999,16442,.15885E-3,.1233E-4,0
IRIDIUM 179,2023-068W,2026-06-04T01:21:12.590208,14.80240594,.0002345,86.6788,39.7881,85.6407,274.5082,0,U,56730,999,16442,.15773E-3,.1225E-4,0
