IRIDIUM 163             
1 43575U 18061G   26154.25887038  .00000082  00000+0  22140-4 0  9991
2 43575  86.3967  62.5453 0002345  84.9878 275.1585 14.34218315411380
IRIDIUM 156             
1 43576U 18061H   26154.65211288  .00000075  00000+0  19671-4 0  9991
2 43576  86.3964  62.3884 0002202  78.3978 281.7465 14.34216992411439
IRIDIUM 164             
1 43577U 18061J   26154.28423836  .00000135  00000+0  41105-4 0  9999
2 43577  86.3968  62.5824 0002082  88.5188 271.6246 14.34216110411428
IRIDIUM 159             
1 43578U 18061K   26154.25252876 -.00000003  00000+0 -81803-5 0  9997
2 43578  86.3964  62.5325 0002189  85.5676 274.5770 14.34217381411388
IRIDIUM 180             
1 43922U 19002A   26155.01947899  .00000019  00000+0 -33003-6 0  9993
2 43922  86.3973 359.1034 0002223  88.9969 271.1481 14.34217593387103
IRIDIUM 176             
1 43923U 19002B   26155.04121793  .00000928  00000+0  14331-3 0  9992
2 43923  86.6092 359.0396 0002064  79.4396 280.7053 14.72250390397310
IRIDIUM 168             
1 43924U 19002C   26155.01313612 -.00000014  00000+0 -12149-4 0  9997
2 43924  86.3974 359.1828 0002047  88.9416 271.2014 14.34217307387081
IRIDIUM 173             
1 43925U 19002D   26155.07021762  .00000262  00000+0  86519-4 0  9991
2 43925  86.3973 359.0486 0002255  87.4462 272.6992 14.34219202387071
IRIDIUM 169             
1 43926U 19002E   26155.03664638  .00000594  00000+0  18754-3 0  9996
2 43926  86.4236  30.6909 0002351  69.5874 290.5576 14.38608848388331
IRIDIUM 172             
1 43927U 19002F   26155.06387708  .00000024  00000+0  15379-5 0  9990
2 43927  86.3974 359.0592 0002271  89.7635 270.3821 14.34217486387086
IRIDIUM 175             
1 43928U 19002G   26154.34351604  .00000367  00000+0  10234-3 0  9990
2 43928  86.4502 296.3094 0000989 262.2416  97.8672 14.43604578396981
IRIDIUM 171             
1 43929U 19002H   26155.04484865  .00000017  00000+0 -88679-6 0  9999
2 43929  86.3984 359.3717 0002026  85.6168 274.5259 14.34217579387078
IRIDIUM 170             
1 43930U 19002J   26155.04740264  .00000236  00000+0  33549-4 0  9995
2 43930  86.6102 359.0408 0002383  89.4496 270.6994 14.72248546397323
IRIDIUM 167             
1 43931U 19002K   26155.03850558  .00000018  00000+0 -70865-6 0  9996
2 43931  86.3974 359.0918 0001906  83.7540 276.3873 14.34217615387072
IRIDIUM 181             
1 56726U 23068S   26154.86454174  .00000229  00000+0  61933-4 0  9990
2 56726  86.4505  62.3588 0002275  88.3834 271.7627 14.43306685160513
IRIDIUM 177             
1 56727U 23068T   26155.00501735  .00000454  00000+0  56244-4 0  9993
2 56727  86.1957 335.0540 0002447  86.4663 273.6837 14.80229750164415
IRIDIUM 174             
1 56728U 23068U   26155.03504155 -.00000010  00000+0 -54342-5 0  9994
2 56728  86.6101 359.1909 0002486  89.4055 270.7447 14.72251454164084
IRIDIUM 178             
1 56729U 23068V   26155.06175074  .00001233  00000+0  15885-3 0  9995
2 56729  86.6548  30.8455 0002496  88.8573 271.2935 14.80243860164425
IRIDIUM 179             
1 56730U 23068W   26155.05639572  .00001225  00000+0  15773-3 0  9991
2 56730  86.6788  39.7881 0002345  85.6407 274.5082 14.80240594164428
